[{"OBJECT_NAME":"ONEWEB-0231","OBJECT_ID":"2021-045R","EPOCH":"2025-09-28T00:43:11.446176","MEAN_MOTION":13.15546953,"ECCENTRICITY":0.00015203,"INCLINATION":87.8997,"RA_OF_ASC_NODE":311.5241,"ARG_OF_PERICENTER":99.3081,"MEAN_ANOMALY":260.8222,"EPHEMERIS_TYPE":0,"CLASSIFICATION_TYPE":"U","NORAD_CAT_ID":48782,"ELEMENT_SET_NO":999,"REV_AT_EPOCH":20987,"BSTAR":0.0003554905,"MEAN_MOTION_DOT":1.47e-6,"MEAN_MOTION_DDOT":0},{"OBJECT_NAME":"ONEWEB-0234","OBJECT_ID":"2021-045S","EPOCH":"2025-09-28T03:27:16.365024","MEAN_MOTION":13.15547294,"ECCENTRICITY":0.0002638,"INCLINATION":87.9002,"RA_OF_ASC_NODE":311.4709,"ARG_OF_PERICENTER":103.0474,"MEAN_ANOMALY":257.0951,"EPHEMERIS_TYPE":0,"CLASSIFICATION_TYPE":"U","NORAD_CAT_ID":48783,"ELEMENT_SET_NO":999,"REV_AT_EPOCH":21002,"BSTAR":-0.00028036039,"MEAN_MOTION_DOT":-9.3e-7,"MEAN_MOTION_DDOT":0},{"OBJECT_NAME":"ONEWEB-0238","OBJECT_ID":"2021-045T","EPOCH":"2025-09-28T03:27:39.502080","MEAN_MOTION":13.1555027,"ECCENTRICITY":0.00022124,"INCLINATION":87.8999,"RA_OF_ASC_NODE":311.4666,"ARG_OF_PERICENTER":99.0096,"MEAN_ANOMALY":261.1285,"EPHEMERIS_TYPE":0,"CLASSIFICATION_TYPE":"U","NORAD_CAT_ID":48784,"ELEMENT_SET_NO":999,"REV_AT_EPOCH":20992,"BSTAR":-0.00025634972,"MEAN_MOTION_DOT":-8.4e-7,"MEAN_MOTION_DDOT":0},{"OBJECT_NAME":"ONEWEB-0240","OBJECT_ID":"2021-045U","EPOCH":"2025-09-28T03:58:17.020992","MEAN_MOTION":13.15551167,"ECCENTRICITY":0.00018049,"INCLINATION":87.9005,"RA_OF_ASC_NODE":311.4485,"ARG_OF_PERICENTER":108.6197,"MEAN_ANOMALY":251.5129,"EPHEMERIS_TYPE":0,"CLASSIFICATION_TYPE":"U","NORAD_CAT_ID":48785,"ELEMENT_SET_NO":999,"REV_AT_EPOCH":20995,"BSTAR":0.00022100908,"MEAN_MOTION_DOT":9.6e-7,"MEAN_MOTION_DDOT":0},{"OBJECT_NAME":"ONEWEB-0246","OBJECT_ID":"2021-045V","EPOCH":"2025-09-28T03:50:16.440864","MEAN_MOTION":13.15549942,"ECCENTRICITY":0.00016512,"INCLINATION":87.9007,"RA_OF_ASC_NODE":311.4624,"ARG_OF_PERICENTER":94.5227,"MEAN_ANOMALY":265.6092,"EPHEMERIS_TYPE":0,"CLASSIFICATION_TYPE":"U","NORAD_CAT_ID":48786,"ELEMENT_SET_NO":999,"REV_AT_EPOCH":20982,"BSTAR":5.8957189e-5,"MEAN_MOTION_DOT":3.5e-7,"MEAN_MOTION_DDOT":0},{"OBJECT_NAME":"ONEWEB-0210","OBJECT_ID":"2021-045W","EPOCH":"2025-09-28T03:13:46.353792","MEAN_MOTION":13.15550332,"ECCENTRICITY":0.00011323,"INCLINATION":87.9011,"RA_OF_ASC_NODE":311.4666,"ARG_OF_PERICENTER":94.954,"MEAN_ANOMALY":265.1719,"EPHEMERIS_TYPE":0,"CLASSIFICATION_TYPE":"U","NORAD_CAT_ID":48787,"ELEMENT_SET_NO":999,"REV_AT_EPOCH":20986,"BSTAR":-5.838984e-5,"MEAN_MOTION_DOT":-9.0e-8,"MEAN_MOTION_DDOT":0},{"OBJECT_NAME":"ONEWEB-0214","OBJECT_ID":"2021-045X","EPOCH":"2025-09-28T03:26:18.963456","MEAN_MOTION":13.15549345,"ECCENTRICITY":0.00014143,"INCLINATION":87.9007,"RA_OF_ASC_NODE":311.4522,"ARG_OF_PERICENTER":87.4342,"MEAN_ANOMALY":272.695,"EPHEMERIS_TYPE":0,"CLASSIFICATION_TYPE":"U","NORAD_CAT_ID":48788,"ELEMENT_SET_NO":999,"REV_AT_EPOCH":20983,"BSTAR":-0.00031301623,"MEAN_MOTION_DOT":-1.05e-6,"MEAN_MOTION_DDOT":0},{"OBJECT_NAME":"ONEWEB-0221","OBJECT_ID":"2021-045Y","EPOCH":"2025-09-28T03:36:35.620128","MEAN_MOTION":13.15546796,"ECCENTRICITY":0.00016074,"INCLINATION":87.8997,"RA_OF_ASC_NODE":311.4752,"ARG_OF_PERICENTER":99.415,"MEAN_ANOMALY":260.7162,"EPHEMERIS_TYPE":0,"CLASSIFICATION_TYPE":"U","NORAD_CAT_ID":48789,"ELEMENT_SET_NO":999,"REV_AT_EPOCH":20992,"BSTAR":-0.0003857729,"MEAN_MOTION_DOT":-1.32e-6,"MEAN_MOTION_DDOT":0},{"OBJECT_NAME":"ONEWEB-0213","OBJECT_ID":"2021-045Z","EPOCH":"2025-09-28T03:20:36.507552","MEAN_MOTION":13.15550099,"ECCENTRICITY":0.00015371,"INCLINATION":87.9001,"RA_OF_ASC_NODE":311.486,"ARG_OF_PERICENTER":98.9533,"MEAN_ANOMALY":261.1771,"EPHEMERIS_TYPE":0,"CLASSIFICATION_TYPE":"U","NORAD_CAT_ID":48790,"ELEMENT_SET_NO":999,"REV_AT_EPOCH":20998,"BSTAR":-0.00031623979,"MEAN_MOTION_DOT":-1.06e-6,"MEAN_MOTION_DDOT":0},{"OBJECT_NAME":"ONEWEB-0212","OBJECT_ID":"2021-045AA","EPOCH":"2025-09-28T00:58:01.027488","MEAN_MOTION":13.1555012,"ECCENTRICITY":0.00018754,"INCLINATION":87.9006,"RA_OF_ASC_NODE":311.4893,"ARG_OF_PERICENTER":97.3047,"MEAN_ANOMALY":262.8297,"EPHEMERIS_TYPE":0,"CLASSIFICATION_TYPE":"U","NORAD_CAT_ID":48791,"ELEMENT_SET_NO":999,"REV_AT_EPOCH":20996,"BSTAR":0.00048099086,"MEAN_MOTION_DOT":1.94e-6,"MEAN_MOTION_DDOT":0},{"OBJECT_NAME":"ONEWEB-0227","OBJECT_ID":"2021-045AB","EPOCH":"2025-09-28T04:35:55.889376","MEAN_MOTION":13.15547187,"ECCENTRICITY":0.00017293,"INCLINATION":87.9001,"RA_OF_ASC_NODE":311.4768,"ARG_OF_PERICENTER":99.8654,"MEAN_ANOMALY":260.2672,"EPHEMERIS_TYPE":0,"CLASSIFICATION_TYPE":"U","NORAD_CAT_ID":48792,"ELEMENT_SET_NO":999,"REV_AT_EPOCH":20993,"BSTAR":0.00015694356,"MEAN_MOTION_DOT":7.2e-7,"MEAN_MOTION_DDOT":0},{"OBJECT_NAME":"ONEWEB-0226","OBJECT_ID":"2021-045AC","EPOCH":"2025-09-28T00:47:44.553984","MEAN_MOTION":13.15549492,"ECCENTRICITY":0.00014532,"INCLINATION":87.9002,"RA_OF_ASC_NODE":311.5161,"ARG_OF_PERICENTER":97.0292,"MEAN_ANOMALY":263.1003,"EPHEMERIS_TYPE":0,"CLASSIFICATION_TYPE":"U","NORAD_CAT_ID":48793,"ELEMENT_SET_NO":999,"REV_AT_EPOCH":20988,"BSTAR":0.00045568746,"MEAN_MOTION_DOT":1.84e-6,"MEAN_MOTION_DDOT":0},{"OBJECT_NAME":"ONEWEB-0224","OBJECT_ID":"2021-045AD","EPOCH":"2025-09-28T03:34:19.732800","MEAN_MOTION":13.15547398,"ECCENTRICITY":0.00022524,"INCLINATION":87.9001,"RA_OF_ASC_NODE":311.5278,"ARG_OF_PERICENTER":119.9464,"MEAN_ANOMALY":240.189,"EPHEMERIS_TYPE":0,"CLASSIFICATION_TYPE":"U","NORAD_CAT_ID":48794,"ELEMENT_SET_NO":999,"REV_AT_EPOCH":20982,"BSTAR":-0.00028715466,"MEAN_MOTION_DOT":-9.5e-7,"MEAN_MOTION_DDOT":0},{"OBJECT_NAME":"ONEWEB-0233","OBJECT_ID":"2021-045AE","EPOCH":"2025-09-28T03:40:57.170208","MEAN_MOTION":13.15549664,"ECCENTRICITY":0.00016704,"INCLINATION":87.9001,"RA_OF_ASC_NODE":311.5381,"ARG_OF_PERICENTER":105.2385,"MEAN_ANOMALY":254.893,"EPHEMERIS_TYPE":0,"CLASSIFICATION_TYPE":"U","NORAD_CAT_ID":48795,"ELEMENT_SET_NO":999,"REV_AT_EPOCH":20984,"BSTAR":-0.00011958905,"MEAN_MOTION_DOT":-3.2e-7,"MEAN_MOTION_DDOT":0},{"OBJECT_NAME":"ONEWEB-0190","OBJECT_ID":"2021-045AF","EPOCH":"2025-09-28T03:22:53.861088","MEAN_MOTION":13.15546463,"ECCENTRICITY":0.00011895,"INCLINATION":87.9001,"RA_OF_ASC_NODE":311.5035,"ARG_OF_PERICENTER":114.2724,"MEAN_ANOMALY":245.853,"EPHEMERIS_TYPE":0,"CLASSIFICATION_TYPE":"U","NORAD_CAT_ID":48796,"ELEMENT_SET_NO":999,"REV_AT_EPOCH":20991,"BSTAR":-0.00043522241,"MEAN_MOTION_DOT":-1.51e-6,"MEAN_MOTION_DDOT":0},{"OBJECT_NAME":"ONEWEB-0236","OBJECT_ID":"2021-045AG","EPOCH":"2025-09-28T03:47:59.571168","MEAN_MOTION":13.15550211,"ECCENTRICITY":0.0001961,"INCLINATION":87.8999,"RA_OF_ASC_NODE":311.5108,"ARG_OF_PERICENTER":95.259,"MEAN_ANOMALY":264.8764,"EPHEMERIS_TYPE":0,"CLASSIFICATION_TYPE":"U","NORAD_CAT_ID":48797,"ELEMENT_SET_NO":999,"REV_AT_EPOCH":20980,"BSTAR":-5.326434e-5,"MEAN_MOTION_DOT":-7.0e-8,"MEAN_MOTION_DDOT":0}]
