ONEWEB-0231             
1 48782U 21045R   25271.02999359  .00000147  00000+0  35549-3 0  9994
2 48782  87.8997 311.5241 0001520  99.3081 260.8222 13.15546953209874
ONEWEB-0234             
1 48783U 21045S   25271.14393941 -.00000093  00000+0 -28036-3 0  9998
2 48783  87.9002 311.4709 0002638 103.0474 257.0951 13.15547294210026
ONEWEB-0238             
1 48784U 21045T   25271.14420720 -.00000084  00000+0 -25635-3 0  9997
2 48784  87.8999 311.4666 0002212  99.0096 261.1285 13.15550270209926
ONEWEB-0240             
1 48785U 21045U   25271.16547478  .00000096  00000+0  22101-3 0  9996
2 48785  87.9005 311.4485 0001804 108.6197 251.5129 13.15551167209959
ONEWEB-0246             
1 48786U 21045V   25271.15991251  .00000035  00000+0  58957-4 0  9990
2 48786  87.9007 311.4624 0001651  94.5227 265.6092 13.15549942209823
ONEWEB-0210             
1 48787U 21045W   25271.13456428 -.00000009  00000+0 -58390-4 0  9995
2 48787  87.9011 311.4666 0001132  94.9540 265.1719 13.15550332209861
ONEWEB-0214             
1 48788U 21045X   25271.14327504 -.00000105  00000+0 -31302-3 0  9999
2 48788  87.9007 311.4522 0001414  87.4342 272.6950 13.15549345209837
ONEWEB-0221             
1 48789U 21045Y   25271.15041227 -.00000132  00000+0 -38577-3 0  9997
2 48789  87.8997 311.4752 0001607  99.4150 260.7162 13.15546796209924
ONEWEB-0213             
1 48790U 21045Z   25271.13931143 -.00000106  00000+0 -31624-3 0  9999
2 48790  87.9001 311.4860 0001537  98.9533 261.1771 13.15550099209982
ONEWEB-0212             
1 48791U 21045AA  25271.04028967  .00000194  00000+0  48099-3 0  9990
2 48791  87.9006 311.4893 0001875  97.3047 262.8297 13.15550120209966
ONEWEB-0227             
1 48792U 21045AB  25271.19161909  .00000072  00000+0  15694-3 0  9991
2 48792  87.9001 311.4768 0001729  99.8654 260.2672 13.15547187209937
ONEWEB-0226             
1 48793U 21045AC  25271.03315456  .00000184  00000+0  45569-3 0  9991
2 48793  87.9002 311.5161 0001453  97.0292 263.1003 13.15549492209884
ONEWEB-0224             
1 48794U 21045AD  25271.14883950 -.00000095  00000+0 -28715-3 0  9990
2 48794  87.9001 311.5278 0002252 119.9464 240.1890 13.15547398209822
ONEWEB-0233             
1 48795U 21045AE  25271.15343947 -.00000032  00000+0 -11959-3 0  9992
2 48795  87.9001 311.5381 0001670 105.2385 254.8930 13.15549664209848
ONEWEB-0190             
1 48796U 21045AF  25271.14090117 -.00000151  00000+0 -43522-3 0  9993
2 48796  87.9001 311.5035 0001189 114.2724 245.8530 13.15546463209915
ONEWEB-0236             
1 48797U 21045AG  25271.15832837 -.00000007  00000+0 -53264-4 0  9993
2 48797  87.8999 311.5108 0001961  95.2590 264.8764 13.15550211209803
